NORAD_CAT_ID,OBJECT_NAME,OBJECT_TYPE,EPOCH,MEAN_MOTION,ECCENTRICITY,INCLINATION,RA_OF_ASC_NODE,ARG_OF_PERICENTER,MEAN_ANOMALY,BSTAR,MEAN_MOTION_DOT,MEAN_MOTION_DDOT,TLE_LINE0,TLE_LINE1,TLE_LINE2,SEMIMAJOR_AXIS,PERIOD,APOGEE,PERIGEE,DECAYED
51109.0,STARLINK-3358,PAYLOAD,2023-05-24 08:54:19,15.08839299,0.0001056,53.2155,189.5103,92.6215,267.4898,0.00015228,2.137e-05,0.0,0 STARLINK-3358,1 51109U 22005F   23144.37106134  .00002137  00000-0  15228-3 0  9998,2 51109  53.2155 189.5103 0001056  92.6215 267.4898 15.08839299 75957,6917.883,95.438,540.478,539.017,0.0
51109.0,STARLINK-3358,PAYLOAD,2023-05-26 02:14:21,15.08842703,0.0001103,53.2164,181.7788,83.1624,276.9494,8.308e-05,1.035e-05,0.0,0 STARLINK-3358,1 51109U 22005F   23146.09330303  .00001035  00000-0  83080-4 0  9994,2 51109  53.2164 181.7788 0001103  83.1624 276.9494 15.08842703 76213,6917.872,95.437,540.5,538.974,0.0
51109.0,STARLINK-3358,PAYLOAD,2023-05-26 11:46:40,15.08844515,0.0001093,53.2162,179.9944,81.95,278.1617,7.0794e-05,8.39e-06,0.0,0 STARLINK-3358,1 51109U 22005F   23146.49074108  .00000839  00000-0  70794-4 0  9995,2 51109  53.2162 179.9944 0001093  81.9500 278.1617 15.08844515 74932,6917.867,95.437,540.488,538.975,0.0
51109.0,STARLINK-3358,PAYLOAD,2023-05-27 08:26:40,15.08840927,0.0001041,53.2161,176.1281,88.7486,271.3626,6.5765e-05,7.59e-06,0.0,0 STARLINK-3358,1 51109U 22005F   23147.35186188  .00000759  00000-0  65765-4 0  9996,2 51109  53.2161 176.1281 0001041  88.7486 271.3626 15.08840927 76407,6917.878,95.437,540.463,539.022,0.0
51109.0,STARLINK-3358,PAYLOAD,2023-05-28 06:42:04,15.08840669,0.0001053,53.2159,171.9648,88.5553,271.556,5.0722e-05,5.2e-06,0.0,0 STARLINK-3358,1 51109U 22005F   23148.27922241  .00000520  00000-0  50722-4 0  9999,2 51109  53.2159 171.9648 0001053  88.5553 271.5560 15.08840669 75209,6917.878,95.438,540.472,539.015,0.0
51109.0,STARLINK-3358,PAYLOAD,2023-05-28 11:28:14,15.08841793,0.0001057,53.216,171.0727,88.4155,271.6958,4.7484e-05,4.68e-06,0.0,0 STARLINK-3358,1 51109U 22005F   23148.47794169  .00000468  00000-0  47484-4 0  9999,2 51109  53.2160 171.0727 0001057  88.4155 271.6958 15.08841793 76573,6917.875,95.437,540.471,539.009,0.0
51109.0,STARLINK-3358,PAYLOAD,2023-05-29 11:19:01,15.08840004,0.0001093,53.2164,166.6123,88.3621,271.7496,4.3878e-05,4.11e-06,0.0,0 STARLINK-3358,1 51109U 22005F   23149.47154271  .00000411  00000-0  43878-4 0  9995,2 51109  53.2164 166.6123 0001093  88.3621 271.7496 15.08840004 75384,6917.88,95.438,540.502,538.989,0.0
51109.0,STARLINK-3358,PAYLOAD,2023-05-29 17:40:34,15.08837344,0.000109,53.2164,165.4225,88.4943,271.6174,2.5929e-05,1.25e-06,0.0,0 STARLINK-3358,1 51109U 22005F   23149.73650512  .00000125  00000-0  25929-4 0  9992,2 51109  53.2164 165.4225 0001090  88.4943 271.6174 15.08837344 76767,6917.889,95.438,540.508,538.999,0.0
51109.0,STARLINK-3358,PAYLOAD,2023-05-30 11:09:48,15.0883562,0.0001113,53.2163,162.1519,90.8792,269.2328,2.0095e-05,3.2e-07,0.0,0 STARLINK-3358,1 51109U 22005F   23150.46514778  .00000032  00000-0  20095-4 0  9993,2 51109  53.2163 162.1519 0001113  90.8792 269.2328 15.08835620 75534,6917.894,95.438,540.529,538.989,0.0
51109.0,STARLINK-3358,PAYLOAD,2023-05-31 07:49:49,15.08839349,0.0001101,53.2162,158.2863,89.0874,271.0244,5.9418e-05,6.58e-06,0.0,0 STARLINK-3358,1 51109U 22005F   23151.32626586  .00000658  00000-0  59418-4 0  9995,2 51109  53.2162 158.2863 0001101  89.0874 271.0244 15.08839349 77003,6917.882,95.438,540.509,538.986,0.0
51109.0,STARLINK-3358,PAYLOAD,2023-05-31 17:22:08,15.08838859,0.0001087,53.2161,156.5023,84.7727,275.3389,5.7818e-05,6.32e-06,0.0,0 STARLINK-3358,1 51109U 22005F   23151.72370672  .00000632  00000-0  57818-4 0  9995,2 51109  53.2161 156.5023 0001087  84.7727 275.3389 15.08838859 75722,6917.884,95.438,540.501,538.997,0.0
51109.0,STARLINK-3358,PAYLOAD,2023-06-01 09:15:59,15.08840309,0.000113,53.2163,153.5291,84.579,275.5331,8.8064e-05,1.114e-05,0.0,0 STARLINK-3358,1 51109U 22005F   23152.38610617  .00001114  00000-0  88064-4 0  9997,2 51109  53.2163 153.5291 0001130  84.5790 275.5331 15.08840309 75828,6917.879,95.438,540.526,538.963,0.0
51109.0,STARLINK-3358,PAYLOAD,2023-06-02 09:06:46,15.08841678,0.0001168,53.2164,149.0688,84.8047,275.3078,5.4626e-05,5.82e-06,0.0,0 STARLINK-3358,1 51109U 22005F   23153.37970639  .00000582  00000-0  54626-4 0  9995,2 51109  53.2164 149.0688 0001168  84.8047 275.3078 15.08841678 75970,6917.875,95.437,540.548,538.932,0.0
51109.0,STARLINK-3358,PAYLOAD,2023-06-02 17:03:42,15.08840247,0.0001174,53.2164,147.582,84.5431,275.5695,4.4479e-05,4.2e-06,0.0,0 STARLINK-3358,1 51109U 22005F   23153.71090783  .00000420  00000-0  44479-4 0  9992,2 51109  53.2164 147.5820 0001174  84.5431 275.5695 15.08840247 77365,6917.88,95.438,540.557,538.932,0.0
51109.0,STARLINK-3358,PAYLOAD,2023-06-03 08:57:33,15.08841363,0.0001152,53.2161,144.6079,86.779,273.3333,4.232e-05,3.86e-06,0.0,0 STARLINK-3358,1 51109U 22005F   23154.37330709  .00000386  00000-0  42320-4 0  9994,2 51109  53.2161 144.6079 0001152  86.7790 273.3333 15.08841363 76122,6917.876,95.437,540.538,538.944,0.0
51109.0,STARLINK-3358,PAYLOAD,2023-06-03 16:54:29,15.08839199,0.0001148,53.216,143.121,86.3791,273.7332,2.7261e-05,1.46e-06,0.0,0 STARLINK-3358,1 51109U 22005F   23154.70450862  .00000146  00000-0  27261-4 0  9995,2 51109  53.2160 143.1210 0001148  86.3791 273.7332 15.08839199 76176,6917.883,95.438,540.542,538.954,0.0
51109.0,STARLINK-3358,PAYLOAD,2023-06-04 02:26:48,15.08836208,0.0001172,53.2163,141.3371,86.2109,273.9017,1.9002e-05,1.5e-07,0.0,0 STARLINK-3358,1 51109U 22005F   23155.10195151  .00000015  00000-0  19002-4 0  9996,2 51109  53.2163 141.3371 0001172  86.2109 273.9017 15.08836208 77571,6917.892,95.438,540.568,538.946,0.0
51109.0,STARLINK-3358,PAYLOAD,2023-06-04 08:48:20,15.08838868,0.0001204,53.2163,140.1472,90.2178,269.8952,3.1023e-05,2.06e-06,0.0,0 STARLINK-3358,1 51109U 22005F   23155.36690967  .00000206  00000-0  31023-4 0  9998,2 51109  53.2163 140.1472 0001204  90.2178 269.8952 15.08838868 76279,6917.884,95.438,540.582,538.916,0.0
51109.0,STARLINK-3358,PAYLOAD,2023-06-05 05:28:21,15.08839793,0.0001205,53.2164,136.2819,87.3063,272.8067,4.4777e-05,4.25e-06,0.0,0 STARLINK-3358,1 51109U 22005F   23156.22802954  .00000425  00000-0  44777-4 0  9998,2 51109  53.2164 136.2819 0001205  87.3063 272.8067 15.08839793 77744,6917.881,95.438,540.58,538.912,0.0
51109.0,STARLINK-3358,PAYLOAD,2023-06-06 08:29:55,15.0884052,0.0001238,53.2163,131.2267,86.3952,273.7181,6.8713e-05,8.06e-06,0.0,0 STARLINK-3358,1 51109U 22005F   23157.35411007  .00000806  00000-0  68713-4 0  9997,2 51109  53.2163 131.2267 0001238  86.3952 273.7181 15.08840520 77913,6917.879,95.438,540.6,538.887,0.0
51109.0,STARLINK-3358,PAYLOAD,2023-06-06 22:48:23,15.08836212,0.0001242,53.216,128.5503,85.2721,274.8413,1.161e-05,-1.03e-06,0.0,0 STARLINK-3358,1 51109U 22005F   23157.95027585 -.00000103  00000-0  11610-4 0  9992,2 51109  53.2160 128.5503 0001242  85.2721 274.8413 15.08836212 78003,6917.892,95.438,540.616,538.898,0.0
51109.0,STARLINK-3358,PAYLOAD,2023-06-07 08:20:42,15.08839712,0.0001224,53.216,126.7663,84.9326,275.1806,3.7359e-05,3.07e-06,0.0,0 STARLINK-3358,1 51109U 22005F   23158.34771323  .00000307  00000-0  37359-4 0  9995,2 51109  53.2160 126.7663 0001224  84.9326 275.1806 15.08839712 76722,6917.881,95.438,540.593,538.9,0.0
51109.0,STARLINK-3358,PAYLOAD,2023-06-07 21:03:47,15.08835831,0.0001242,53.2155,124.3874,88.2472,271.8663,-2.6044e-06,-3.29e-06,0.0,0 STARLINK-3358,1 51109U 22005F   23158.87763824 -.00000329  00000-0 -26044-5 0  9996,2 51109  53.2155 124.3874 0001242  88.2472 271.8663 15.08835831 76804,6917.893,95.438,540.617,538.899,0.0
51109.0,STARLINK-3358,PAYLOAD,2023-06-08 01:49:57,15.0883627,0.0001241,53.2156,123.4953,88.3245,271.7889,-4.7329e-08,-2.89e-06,0.0,0 STARLINK-3358,1 51109U 22005F   23159.07635823 -.00000289  00000-0 -47329-7 0  9992,2 51109  53.2156 123.4953 0001241  88.3245 271.7889 15.08836270 78170,6917.892,95.438,540.615,538.898,0.0
51109.0,STARLINK-3358,PAYLOAD,2023-06-08 06:36:06,15.08840306,0.0001242,53.216,122.6032,88.0062,272.1073,3.2546e-05,2.3e-06,0.0,0 STARLINK-3358,1 51109U 22005F   23159.27507506  .00000230  00000-0  32546-4 0  9996,2 51109  53.2160 122.6032 0001242  88.0062 272.1073 15.08840306 76868,6917.879,95.438,540.604,538.885,0.0
51109.0,STARLINK-3358,PAYLOAD,2023-06-08 14:33:02,15.08837775,0.0001161,53.2162,121.1165,88.084,272.0285,3.1033e-05,2.06e-06,0.0,0 STARLINK-3358,1 51109U 22005F   23159.60627688  .00000206  00000-0  31033-4 0  9990,2 51109  53.2162 121.1165 0001161  88.0840 272.0285 15.08837775 76911,6917.887,95.438,540.555,538.949,0.0
51109.0,STARLINK-3358,PAYLOAD,2023-06-09 06:26:53,15.08838749,0.0001226,53.2165,118.1427,90.7867,269.3266,3.449e-05,2.61e-06,0.0,0 STARLINK-3358,1 51109U 22005F   23160.26867779  .00000261  00000-0  34490-4 0  9992,2 51109  53.2165 118.1427 0001226  90.7867 269.3266 15.08838749 78352,6917.884,95.438,540.597,538.901,0.0
51109.0,STARLINK-3358,PAYLOAD,2023-06-09 20:45:22,15.08834352,0.0001294,53.2171,115.4664,89.0319,271.0821,5.4313e-05,5.76e-06,0.0,0 STARLINK-3358,1 51109U 22005F   23160.86484165  .00000576  00000-0  54313-4 0  9997,2 51109  53.2171 115.4664 0001294  89.0319 271.0821 15.08834352 77105,6917.898,95.438,540.658,538.867,0.0
51109.0,STARLINK-3358,PAYLOAD,2023-06-10 06:17:40,15.08841414,0.0001241,53.2171,113.6821,90.4687,269.6448,6.2757e-05,7.11e-06,0.0,0 STARLINK-3358,1 51109U 22005F   23161.26227751  .00000711  00000-0  62757-4 0  9990,2 51109  53.2171 113.6821 0001241  90.4687 269.6448 15.08841414 77167,6917.876,95.437,540.6,538.883,0.0
51109.0,STARLINK-3358,PAYLOAD,2023-06-10 14:14:37,15.08826546,0.0001239,53.2169,112.1951,93.5233,266.5901,0.0001532,2.15e-05,0.0,0 STARLINK-3358,1 51109U 22005F   23161.59348532  .00002150  00000-0  15320-3 0  9999,2 51109  53.2169 112.1951 0001239  93.5233 266.5901 15.08826546 78553,6917.922,95.438,540.644,538.929,0.0
